GLOBALSTAR M024         
1 25883U 99043A   24275.62920907 -.00000141  00000+0 -26883-2 0  9992
2 25883  51.9998 244.0181 0001842  29.0303 142.1213 11.10162047 86147
GLOBALSTAR M027         
1 25884U 99043B   24275.53972859  .00000035  00000+0  37376-2 0  9995
2 25884  52.0232 314.8774 0020974 293.6300  66.2292 11.04370077112665
GLOBALSTAR M054         
1 25885U 99043C   24275.63036291 -.00000160  00000+0 -22563-2 0  9991
2 25885  52.0113 125.3601 0006681  94.7463 301.9501 11.39204751 89586
GLOBALSTAR M053         
1 25886U 99043D   24275.49983773 -.00000075  00000+0 -19343-3 0  9990
2 25886  51.9991  58.4122 0003433  17.4875  25.8991 11.27658970 90269
GLOBALSTAR M058         
1 25907U 99049A   24275.54088856 -.00000045  00000+0  53397-3 0  9997
2 25907  51.9932  79.8199 0002661 123.8423 236.2665 11.93183674510666
GLOBALSTAR M050         
1 25908U 99049B   24275.51673476  .00000025  00000+0  12794-2 0  9995
2 25908  51.9970 106.8859 0008225 233.4887 161.1616 12.07441031116942
GLOBALSTAR M033         
1 25909U 99049C   24275.51579879  .00000067  00000+0  15310-2 0  9991
2 25909  51.9940 356.5928 0013245  93.8110 266.4252 12.20282863504167
GLOBALSTAR M055         
1 25910U 99049D   24275.55715867 -.00000062  00000+0  27167-3 0  9996
2 25910  52.0049  19.8079 0006464 317.4220  42.6129 12.29409937136473
